KUIPER-00008            
1 63724U 25088A   26032.84609774  .00003183  00000+0  27915-3 0  9994
2 63724  51.8886 250.3598 0007940 340.2060  19.8602 14.99285652 42684
KUIPER-00009            
1 63725U 25088B   26031.03356016  .00002733  00000+0  38661-3 0  9993
2 63725  51.9013 273.1445 0010206 340.3309  19.7259 14.80019163 42205
KUIPER-00010            
1 63726U 25088C   26032.84926298 -.00004065  00000+0 -50471-3 0  9994
2 63726  51.9008 241.5736 0000564  74.7560 285.3465 14.79922029 42421
KUIPER-00011            
1 63727U 25088D   26032.87441371  .00003638  00000+0  50482-3 0  9997
2 63727  51.9022 249.0261 0003305  40.8700 319.2509 14.80029254 42459
KUIPER-00012            
1 63728U 25088E   26032.95527334  .00001745  00000+0  27821-3 0  9999
2 63728  51.8999 233.2125 0008858  14.0151 346.1054 14.76609693 42637
KUIPER-00013            
1 63729U 25088F   26032.92357373  .00003246  00000+0  45409-3 0  9991
2 63729  51.9004 266.2511 0002685 278.9172  81.1486 14.79989570 42270
KUIPER-00014            
1 63730U 25088G   26030.08334632  .00007616  00000+0  10198-2 0  9992
2 63730  51.9015 279.7574 0004802 350.8622   9.2253 14.80224121 41655
KUIPER-00015            
1 63731U 25088H   26030.99571393  .00005397  00000+0  69272-3 0  9992
2 63731  51.8997 285.9442 0009039 312.9630  47.0575 14.82511348 42102
KUIPER-00016            
1 63732U 25088J   26032.64927788  .00004197  00000+0  58041-3 0  9999
2 63732  51.8990 270.9711 0007754 318.8847  41.1530 14.79837076 41993
KUIPER-00018            
1 63733U 25088K   26032.93176810  .00006994  00000+0  94539-3 0  9993
2 63733  51.9029 258.6830 0009629 340.0540  20.0045 14.79921381 42196
KUIPER-00019            
1 63734U 25088L   26032.93260912 -.00001493  00000+0 -16693-3 0  9997
2 63734  51.9028 257.2130 0001995  57.7433 302.3723 14.79901923 42217
KUIPER-00020            
1 63735U 25088M   26032.92898521  .00002998  00000+0  42215-3 0  9998
2 63735  51.9003 261.2201 0007007 336.8170  23.2475 14.79933028 42364
KUIPER-00021            
1 63736U 25088N   26032.92731392  .00002894  00000+0  40850-3 0  9999
2 63736  51.8997 262.2243 0004808 333.8242  26.2476 14.79942583 42186
KUIPER-00023            
1 63737U 25088P   26032.92614018 -.00009382  00000+0 -12032-2 0  9996
2 63737  51.9001 263.6918 0009419 346.8099  13.2616 14.79894119 42469
KUIPER-00024            
1 63738U 25088Q   26032.87227749  .00001956  00000+0  28549-3 0  9990
2 63738  51.9036 251.4881 0000812 112.5736 247.5313 14.79935102 42752
KUIPER-00025            
1 63739U 25088R   26032.92991234  .00002730  00000+0  38639-3 0  9996
2 63739  51.9011 259.7432 0000783  97.0643 263.0409 14.79997516 42509
