[{"OBJECT_NAME":"KUIPER-00008","OBJECT_ID":"2025-088A","EPOCH":"2026-02-01T20:18:22.844736","MEAN_MOTION":14.99285652,"ECCENTRICITY":0.00079404,"INCLINATION":51.8886,"RA_OF_ASC_NODE":250.3598,"ARG_OF_PERICENTER":340.206,"MEAN_ANOMALY":19.8602,"EPHEMERIS_TYPE":0,"CLASSIFICATION_TYPE":"U","NORAD_CAT_ID":63724,"ELEMENT_SET_NO":999,"REV_AT_EPOCH":4268,"BSTAR":0.00027914507,"MEAN_MOTION_DOT":3.183e-5,"MEAN_MOTION_DDOT":0},{"OBJECT_NAME":"KUIPER-00009","OBJECT_ID":"2025-088B","EPOCH":"2026-01-31T00:48:19.597824","MEAN_MOTION":14.80019163,"ECCENTRICITY":0.00102067,"INCLINATION":51.9013,"RA_OF_ASC_NODE":273.1445,"ARG_OF_PERICENTER":340.3309,"MEAN_ANOMALY":19.7259,"EPHEMERIS_TYPE":0,"CLASSIFICATION_TYPE":"U","NORAD_CAT_ID":63725,"ELEMENT_SET_NO":999,"REV_AT_EPOCH":4220,"BSTAR":0.00038660576,"MEAN_MOTION_DOT":2.733e-5,"MEAN_MOTION_DDOT":0},{"OBJECT_NAME":"KUIPER-00010","OBJECT_ID":"2025-088C","EPOCH":"2026-02-01T20:22:56.321472","MEAN_MOTION":14.79922029,"ECCENTRICITY":5.644e-5,"INCLINATION":51.9008,"RA_OF_ASC_NODE":241.5736,"ARG_OF_PERICENTER":74.756,"MEAN_ANOMALY":285.3465,"EPHEMERIS_TYPE":0,"CLASSIFICATION_TYPE":"U","NORAD_CAT_ID":63726,"ELEMENT_SET_NO":999,"REV_AT_EPOCH":4242,"BSTAR":-0.00050470896,"MEAN_MOTION_DOT":-4.065e-5,"MEAN_MOTION_DDOT":0},{"OBJECT_NAME":"KUIPER-00011","OBJECT_ID":"2025-088D","EPOCH":"2026-02-01T20:59:09.344544","MEAN_MOTION":14.80029254,"ECCENTRICITY":0.00033058,"INCLINATION":51.9022,"RA_OF_ASC_NODE":249.0261,"ARG_OF_PERICENTER":40.87,"MEAN_ANOMALY":319.2509,"EPHEMERIS_TYPE":0,"CLASSIFICATION_TYPE":"U","NORAD_CAT_ID":63727,"ELEMENT_SET_NO":999,"REV_AT_EPOCH":4245,"BSTAR":0.0005048197,"MEAN_MOTION_DOT":3.638e-5,"MEAN_MOTION_DDOT":0},{"OBJECT_NAME":"KUIPER-00012","OBJECT_ID":"2025-088E","EPOCH":"2026-02-01T22:55:35.616576","MEAN_MOTION":14.76609693,"ECCENTRICITY":0.00088582,"INCLINATION":51.8999,"RA_OF_ASC_NODE":233.2125,"ARG_OF_PERICENTER":14.0151,"MEAN_ANOMALY":346.1054,"EPHEMERIS_TYPE":0,"CLASSIFICATION_TYPE":"U","NORAD_CAT_ID":63728,"ELEMENT_SET_NO":999,"REV_AT_EPOCH":4263,"BSTAR":0.00027820717,"MEAN_MOTION_DOT":1.745e-5,"MEAN_MOTION_DDOT":0},{"OBJECT_NAME":"KUIPER-00013","OBJECT_ID":"2025-088F","EPOCH":"2026-02-01T22:09:56.770272","MEAN_MOTION":14.7998957,"ECCENTRICITY":0.00026851,"INCLINATION":51.9004,"RA_OF_ASC_NODE":266.2511,"ARG_OF_PERICENTER":278.9172,"MEAN_ANOMALY":81.1486,"EPHEMERIS_TYPE":0,"CLASSIFICATION_TYPE":"U","NORAD_CAT_ID":63729,"ELEMENT_SET_NO":999,"REV_AT_EPOCH":4227,"BSTAR":0.00045409139,"MEAN_MOTION_DOT":3.246e-5,"MEAN_MOTION_DDOT":0},{"OBJECT_NAME":"KUIPER-00014","OBJECT_ID":"2025-088G","EPOCH":"2026-01-30T02:00:01.122048","MEAN_MOTION":14.80224121,"ECCENTRICITY":0.00048021,"INCLINATION":51.9015,"RA_OF_ASC_NODE":279.7574,"ARG_OF_PERICENTER":350.8622,"MEAN_ANOMALY":9.2253,"EPHEMERIS_TYPE":0,"CLASSIFICATION_TYPE":"U","NORAD_CAT_ID":63730,"ELEMENT_SET_NO":999,"REV_AT_EPOCH":4165,"BSTAR":0.0010198112,"MEAN_MOTION_DOT":7.616e-5,"MEAN_MOTION_DDOT":0},{"OBJECT_NAME":"KUIPER-00015","OBJECT_ID":"2025-088H","EPOCH":"2026-01-30T23:53:49.683552","MEAN_MOTION":14.82511348,"ECCENTRICITY":0.00090393,"INCLINATION":51.8997,"RA_OF_ASC_NODE":285.9442,"ARG_OF_PERICENTER":312.963,"MEAN_ANOMALY":47.0575,"EPHEMERIS_TYPE":0,"CLASSIFICATION_TYPE":"U","NORAD_CAT_ID":63731,"ELEMENT_SET_NO":999,"REV_AT_EPOCH":4210,"BSTAR":0.00069272216,"MEAN_MOTION_DOT":5.397e-5,"MEAN_MOTION_DDOT":0},{"OBJECT_NAME":"KUIPER-00016","OBJECT_ID":"2025-088J","EPOCH":"2026-02-01T15:34:57.608832","MEAN_MOTION":14.79837076,"ECCENTRICITY":0.00077542,"INCLINATION":51.899,"RA_OF_ASC_NODE":270.9711,"ARG_OF_PERICENTER":318.8847,"MEAN_ANOMALY":41.153,"EPHEMERIS_TYPE":0,"CLASSIFICATION_TYPE":"U","NORAD_CAT_ID":63732,"ELEMENT_SET_NO":999,"REV_AT_EPOCH":4199,"BSTAR":0.00058041301,"MEAN_MOTION_DOT":4.197e-5,"MEAN_MOTION_DDOT":0},{"OBJECT_NAME":"KUIPER-00018","OBJECT_ID":"2025-088K","EPOCH":"2026-02-01T22:21:44.763840","MEAN_MOTION":14.79921381,"ECCENTRICITY":0.00096295,"INCLINATION":51.9029,"RA_OF_ASC_NODE":258.683,"ARG_OF_PERICENTER":340.054,"MEAN_ANOMALY":20.0045,"EPHEMERIS_TYPE":0,"CLASSIFICATION_TYPE":"U","NORAD_CAT_ID":63733,"ELEMENT_SET_NO":999,"REV_AT_EPOCH":4219,"BSTAR":0.00094539142,"MEAN_MOTION_DOT":6.994e-5,"MEAN_MOTION_DDOT":0},{"OBJECT_NAME":"KUIPER-00019","OBJECT_ID":"2025-088L","EPOCH":"2026-02-01T22:22:57.427968","MEAN_MOTION":14.79901923,"ECCENTRICITY":0.00019959,"INCLINATION":51.9028,"RA_OF_ASC_NODE":257.213,"ARG_OF_PERICENTER":57.7433,"MEAN_ANOMALY":302.3723,"EPHEMERIS_TYPE":0,"CLASSIFICATION_TYPE":"U","NORAD_CAT_ID":63734,"ELEMENT_SET_NO":999,"REV_AT_EPOCH":4221,"BSTAR":-0.00016692661,"MEAN_MOTION_DOT":-1.493e-5,"MEAN_MOTION_DDOT":0},{"OBJECT_NAME":"KUIPER-00020","OBJECT_ID":"2025-088M","EPOCH":"2026-02-01T22:17:44.322144","MEAN_MOTION":14.79933028,"ECCENTRICITY":0.00070079,"INCLINATION":51.9003,"RA_OF_ASC_NODE":261.2201,"ARG_OF_PERICENTER":336.817,"MEAN_ANOMALY":23.2475,"EPHEMERIS_TYPE":0,"CLASSIFICATION_TYPE":"U","NORAD_CAT_ID":63735,"ELEMENT_SET_NO":999,"REV_AT_EPOCH":4236,"BSTAR":0.00042215392,"MEAN_MOTION_DOT":2.998e-5,"MEAN_MOTION_DDOT":0},{"OBJECT_NAME":"KUIPER-00021","OBJECT_ID":"2025-088N","EPOCH":"2026-02-01T22:15:19.922688","MEAN_MOTION":14.79942583,"ECCENTRICITY":0.00048086,"INCLINATION":51.8997,"RA_OF_ASC_NODE":262.2243,"ARG_OF_PERICENTER":333.8242,"MEAN_ANOMALY":26.2476,"EPHEMERIS_TYPE":0,"CLASSIFICATION_TYPE":"U","NORAD_CAT_ID":63736,"ELEMENT_SET_NO":999,"REV_AT_EPOCH":4218,"BSTAR":0.00040850327,"MEAN_MOTION_DOT":2.894e-5,"MEAN_MOTION_DDOT":0},{"OBJECT_NAME":"KUIPER-00023","OBJECT_ID":"2025-088P","EPOCH":"2026-02-01T22:13:38.511552","MEAN_MOTION":14.79894119,"ECCENTRICITY":0.00094194,"INCLINATION":51.9001,"RA_OF_ASC_NODE":263.6918,"ARG_OF_PERICENTER":346.8099,"MEAN_ANOMALY":13.2616,"EPHEMERIS_TYPE":0,"CLASSIFICATION_TYPE":"U","NORAD_CAT_ID":63737,"ELEMENT_SET_NO":999,"REV_AT_EPOCH":4246,"BSTAR":-0.0012032446,"MEAN_MOTION_DOT":-9.382e-5,"MEAN_MOTION_DDOT":0},{"OBJECT_NAME":"KUIPER-00024","OBJECT_ID":"2025-088Q","EPOCH":"2026-02-01T20:56:04.775136","MEAN_MOTION":14.79935102,"ECCENTRICITY":8.127e-5,"INCLINATION":51.9036,"RA_OF_ASC_NODE":251.4881,"ARG_OF_PERICENTER":112.5736,"MEAN_ANOMALY":247.5313,"EPHEMERIS_TYPE":0,"CLASSIFICATION_TYPE":"U","NORAD_CAT_ID":63738,"ELEMENT_SET_NO":999,"REV_AT_EPOCH":4275,"BSTAR":0.00028549188,"MEAN_MOTION_DOT":1.956e-5,"MEAN_MOTION_DDOT":0},{"OBJECT_NAME":"KUIPER-00025","OBJECT_ID":"2025-088R","EPOCH":"2026-02-01T22:19:04.426176","MEAN_MOTION":14.79997516,"ECCENTRICITY":7.839e-5,"INCLINATION":51.9011,"RA_OF_ASC_NODE":259.7432,"ARG_OF_PERICENTER":97.0643,"MEAN_ANOMALY":263.0409,"EPHEMERIS_TYPE":0,"CLASSIFICATION_TYPE":"U","NORAD_CAT_ID":63739,"ELEMENT_SET_NO":999,"REV_AT_EPOCH":4250,"BSTAR":0.00038638926,"MEAN_MOTION_DOT":2.73e-5,"MEAN_MOTION_DDOT":0}]
